METEOR-M2 4             
1 59051U 24039A   24317.15213495  .00000255  00000+0  13391-3 0  9996
2 59051  98.6197 275.5474 0008096  59.7286 300.4692 14.22300711 36527
